STARLINK-31726          
1 59739U 24090K   26068.29693298 -.00001600  00000+0 -48633-4 0  9994
2 59739  43.0034 185.4077 0000578 225.4163 134.6642 15.27579545103385
AL MUNTHER              
1 63240U 25052AG  26068.64540749  .00017933  00000+0  65015-3 0  9992
2 63240  97.4001 323.9152 0008027 130.7043 229.4895 15.28381521 54798
